[{"OBJECT_NAME":"CUBESX-HSE 3 (RS42S)","OBJECT_ID":"2023-091N","EPOCH":"2026-03-09T22:57:25.321248","MEAN_MOTION":15.286147,"ECCENTRICITY":0.00127191,"INCLINATION":97.5203,"RA_OF_ASC_NODE":133.4295,"ARG_OF_PERICENTER":86.5376,"MEAN_ANOMALY":273.7318,"EPHEMERIS_TYPE":0,"CLASSIFICATION_TYPE":"U","NORAD_CAT_ID":57178,"ELEMENT_SET_NO":999,"REV_AT_EPOCH":14925,"BSTAR":0.00059055694,"MEAN_MOTION_DOT":0.00016417,"MEAN_MOTION_DDOT":0},{"OBJECT_NAME":"STARLINK-35243","OBJECT_ID":"2025-232M","EPOCH":"2026-03-09T12:07:09.055488","MEAN_MOTION":15.30197658,"ECCENTRICITY":0.00012324,"INCLINATION":53.159,"RA_OF_ASC_NODE":105.0214,"ARG_OF_PERICENTER":98.0949,"MEAN_ANOMALY":262.0192,"EPHEMERIS_TYPE":0,"CLASSIFICATION_TYPE":"U","NORAD_CAT_ID":66016,"ELEMENT_SET_NO":999,"REV_AT_EPOCH":2340,"BSTAR":0.00084491595,"MEAN_MOTION_DOT":0.00024746,"MEAN_MOTION_DDOT":0}]
